[{"OBJECT_NAME":"STARLINK-36238","OBJECT_ID":"2026-070X","EPOCH":"2026-04-29T07:38:31.439616","MEAN_MOTION":15.81006847,"ECCENTRICITY":0.00016287,"INCLINATION":53.156,"RA_OF_ASC_NODE":130.4673,"ARG_OF_PERICENTER":309.2267,"MEAN_ANOMALY":50.8611,"EPHEMERIS_TYPE":0,"CLASSIFICATION_TYPE":"U","NORAD_CAT_ID":68563,"ELEMENT_SET_NO":999,"REV_AT_EPOCH":426,"BSTAR":0.0013898393,"MEAN_MOTION_DOT":0.00284594,"MEAN_MOTION_DDOT":0},{"OBJECT_NAME":"STARLINK-37008","OBJECT_ID":"2026-070Y","EPOCH":"2026-04-29T07:37:27.394752","MEAN_MOTION":15.80990826,"ECCENTRICITY":9.728e-5,"INCLINATION":53.1563,"RA_OF_ASC_NODE":130.4622,"ARG_OF_PERICENTER":117.8529,"MEAN_ANOMALY":242.2593,"EPHEMERIS_TYPE":0,"CLASSIFICATION_TYPE":"U","NORAD_CAT_ID":68564,"ELEMENT_SET_NO":999,"REV_AT_EPOCH":426,"BSTAR":0.00138584,"MEAN_MOTION_DOT":0.00283531,"MEAN_MOTION_DDOT":0},{"OBJECT_NAME":"STARLINK-37161","OBJECT_ID":"2026-070Z","EPOCH":"2026-04-29T07:36:23.781024","MEAN_MOTION":15.80905419,"ECCENTRICITY":5.237e-5,"INCLINATION":53.1563,"RA_OF_ASC_NODE":130.4577,"ARG_OF_PERICENTER":50.9286,"MEAN_ANOMALY":309.1783,"EPHEMERIS_TYPE":0,"CLASSIFICATION_TYPE":"U","NORAD_CAT_ID":68565,"ELEMENT_SET_NO":999,"REV_AT_EPOCH":426,"BSTAR":0.0015692671,"MEAN_MOTION_DOT":0.00321323,"MEAN_MOTION_DDOT":0},{"OBJECT_NAME":"STARLINK-37212","OBJECT_ID":"2026-070AA","EPOCH":"2026-04-29T07:35:17.643552","MEAN_MOTION":15.80967107,"ECCENTRICITY":8.392e-5,"INCLINATION":53.1563,"RA_OF_ASC_NODE":130.4524,"ARG_OF_PERICENTER":123.3705,"MEAN_ANOMALY":236.7398,"EPHEMERIS_TYPE":0,"CLASSIFICATION_TYPE":"U","NORAD_CAT_ID":68566,"ELEMENT_SET_NO":999,"REV_AT_EPOCH":426,"BSTAR":0.0011384311,"MEAN_MOTION_DOT":0.00231109,"MEAN_MOTION_DDOT":0},{"OBJECT_NAME":"STARLINK-37261","OBJECT_ID":"2026-070AB","EPOCH":"2026-04-29T07:34:13.862208","MEAN_MOTION":15.80905289,"ECCENTRICITY":0.00016139,"INCLINATION":53.1568,"RA_OF_ASC_NODE":130.4469,"ARG_OF_PERICENTER":105.7789,"MEAN_ANOMALY":254.3412,"EPHEMERIS_TYPE":0,"CLASSIFICATION_TYPE":"U","NORAD_CAT_ID":68567,"ELEMENT_SET_NO":999,"REV_AT_EPOCH":426,"BSTAR":0.00090762957,"MEAN_MOTION_DOT":0.00182547,"MEAN_MOTION_DDOT":0},{"OBJECT_NAME":"STARLINK-37283","OBJECT_ID":"2026-070AC","EPOCH":"2026-04-29T05:23:23.584992","MEAN_MOTION":15.80924945,"ECCENTRICITY":9.223e-5,"INCLINATION":53.1564,"RA_OF_ASC_NODE":131.3222,"ARG_OF_PERICENTER":49.9624,"MEAN_ANOMALY":310.1479,"EPHEMERIS_TYPE":0,"CLASSIFICATION_TYPE":"U","NORAD_CAT_ID":68568,"ELEMENT_SET_NO":999,"REV_AT_EPOCH":424,"BSTAR":0.00196749,"MEAN_MOTION_DOT":0.00407503,"MEAN_MOTION_DDOT":0},{"OBJECT_NAME":"STARLINK-37256","OBJECT_ID":"2026-070AD","EPOCH":"2026-04-29T05:24:28.332288","MEAN_MOTION":15.80933057,"ECCENTRICITY":8.186e-5,"INCLINATION":53.1566,"RA_OF_ASC_NODE":131.3263,"ARG_OF_PERICENTER":79.3408,"MEAN_ANOMALY":280.7707,"EPHEMERIS_TYPE":0,"CLASSIFICATION_TYPE":"U","NORAD_CAT_ID":68569,"ELEMENT_SET_NO":999,"REV_AT_EPOCH":424,"BSTAR":0.0021363082,"MEAN_MOTION_DOT":0.00444641,"MEAN_MOTION_DDOT":0},{"OBJECT_NAME":"STARLINK-37228","OBJECT_ID":"2026-070AE","EPOCH":"2026-04-29T05:22:18.461856","MEAN_MOTION":15.81175725,"ECCENTRICITY":0.00022793,"INCLINATION":53.1566,"RA_OF_ASC_NODE":131.3181,"ARG_OF_PERICENTER":181.4307,"MEAN_ANOMALY":178.671,"EPHEMERIS_TYPE":0,"CLASSIFICATION_TYPE":"U","NORAD_CAT_ID":68570,"ELEMENT_SET_NO":999,"REV_AT_EPOCH":424,"BSTAR":0.0020997711,"MEAN_MOTION_DOT":0.00441748,"MEAN_MOTION_DDOT":0},{"OBJECT_NAME":"MERIDIAN-M 21L","OBJECT_ID":"2026-071A","EPOCH":"2026-04-28T20:46:38.842176","MEAN_MOTION":2.00619252,"ECCENTRICITY":0.72073627,"INCLINATION":62.7861,"RA_OF_ASC_NODE":235.3647,"ARG_OF_PERICENTER":285.0413,"MEAN_ANOMALY":11.0145,"EPHEMERIS_TYPE":0,"CLASSIFICATION_TYPE":"U","NORAD_CAT_ID":68571,"ELEMENT_SET_NO":999,"REV_AT_EPOCH":52,"BSTAR":0,"MEAN_MOTION_DOT":-2.8e-7,"MEAN_MOTION_DDOT":0},{"OBJECT_NAME":"KUIPER-00131","OBJECT_ID":"2026-072A","EPOCH":"2026-04-29T06:00:02.999808","MEAN_MOTION":15.1493901,"ECCENTRICITY":0.00061333,"INCLINATION":51.883,"RA_OF_ASC_NODE":54.389,"ARG_OF_PERICENTER":183.9804,"MEAN_ANOMALY":34.5537,"EPHEMERIS_TYPE":0,"CLASSIFICATION_TYPE":"U","NORAD_CAT_ID":68573,"ELEMENT_SET_NO":999,"REV_AT_EPOCH":477,"BSTAR":0.0029852008,"MEAN_MOTION_DOT":0.00056502,"MEAN_MOTION_DDOT":0},{"OBJECT_NAME":"KUIPER-00189","OBJECT_ID":"2026-072B","EPOCH":"2026-04-29T06:00:02.999808","MEAN_MOTION":15.05693713,"ECCENTRICITY":6.772e-5,"INCLINATION":51.89,"RA_OF_ASC_NODE":55.6667,"ARG_OF_PERICENTER":89.4795,"MEAN_ANOMALY":203.8016,"EPHEMERIS_TYPE":0,"CLASSIFICATION_TYPE":"U","NORAD_CAT_ID":68574,"ELEMENT_SET_NO":999,"REV_AT_EPOCH":435,"BSTAR":0.0023223747,"MEAN_MOTION_DOT":0.00033845,"MEAN_MOTION_DDOT":0},{"OBJECT_NAME":"KUIPER-00192","OBJECT_ID":"2026-072C","EPOCH":"2026-04-29T06:00:02.999808","MEAN_MOTION":15.27525245,"ECCENTRICITY":0.00047713,"INCLINATION":51.8817,"RA_OF_ASC_NODE":53.7842,"ARG_OF_PERICENTER":198.9046,"MEAN_ANOMALY":8.2308,"EPHEMERIS_TYPE":0,"CLASSIFICATION_TYPE":"U","NORAD_CAT_ID":68575,"ELEMENT_SET_NO":999,"REV_AT_EPOCH":346,"BSTAR":0.0025604751,"MEAN_MOTION_DOT":0.00070252,"MEAN_MOTION_DDOT":0},{"OBJECT_NAME":"KUIPER-00193","OBJECT_ID":"2026-072D","EPOCH":"2026-04-29T04:38:25.620576","MEAN_MOTION":15.37912313,"ECCENTRICITY":0.00037777,"INCLINATION":51.8757,"RA_OF_ASC_NODE":53.8073,"ARG_OF_PERICENTER":171.2366,"MEAN_ANOMALY":188.8688,"EPHEMERIS_TYPE":0,"CLASSIFICATION_TYPE":"U","NORAD_CAT_ID":68576,"ELEMENT_SET_NO":999,"REV_AT_EPOCH":384,"BSTAR":0.0010713725,"MEAN_MOTION_DOT":0.00040394,"MEAN_MOTION_DDOT":0},{"OBJECT_NAME":"KUIPER-00194","OBJECT_ID":"2026-072E","EPOCH":"2026-04-29T07:37:59.254752","MEAN_MOTION":15.38206195,"ECCENTRICITY":0.00020826,"INCLINATION":51.8784,"RA_OF_ASC_NODE":53.1433,"ARG_OF_PERICENTER":156.4608,"MEAN_ANOMALY":203.6475,"EPHEMERIS_TYPE":0,"CLASSIFICATION_TYPE":"U","NORAD_CAT_ID":68577,"ELEMENT_SET_NO":999,"REV_AT_EPOCH":386,"BSTAR":0.00068085203,"MEAN_MOTION_DOT":0.00025721,"MEAN_MOTION_DDOT":0},{"OBJECT_NAME":"KUIPER-00229","OBJECT_ID":"2026-072F","EPOCH":"2026-04-29T06:00:02.999808","MEAN_MOTION":15.20371498,"ECCENTRICITY":0.00078289,"INCLINATION":51.8787,"RA_OF_ASC_NODE":54.4043,"ARG_OF_PERICENTER":204.98,"MEAN_ANOMALY":69.4488,"EPHEMERIS_TYPE":0,"CLASSIFICATION_TYPE":"U","NORAD_CAT_ID":68578,"ELEMENT_SET_NO":999,"REV_AT_EPOCH":489,"BSTAR":0.0025273338,"MEAN_MOTION_DOT":0.00055904,"MEAN_MOTION_DDOT":0}]
