STARLINK-36238          
1 68563U 26070X   26119.31841944  .00284594  00000+0  13898-2 0  9998
2 68563  53.1560 130.4673 0001628 309.2267  50.8611 15.81006847  4263
STARLINK-37008          
1 68564U 26070Y   26119.31767818  .00283531  00000+0  13858-2 0  9992
2 68564  53.1563 130.4622 0000972 117.8529 242.2593 15.80990826  4260
STARLINK-37161          
1 68565U 26070Z   26119.31694191  .00321323  00000+0  15693-2 0  9997
2 68565  53.1563 130.4577 0000523  50.9286 309.1783 15.80905419  4267
STARLINK-37212          
1 68566U 26070AA  26119.31617643  .00231109  00000+0  11384-2 0  9990
2 68566  53.1563 130.4524 0000839 123.3705 236.7398 15.80967107  4260
STARLINK-37261          
1 68567U 26070AB  26119.31543822  .00182547  00000+0  90763-3 0  9998
2 68567  53.1568 130.4469 0001613 105.7789 254.3412 15.80905289  4267
STARLINK-37283          
1 68568U 26070AC  26119.22457853  .00407503  00000+0  19675-2 0  9991
2 68568  53.1564 131.3222 0000922  49.9624 310.1479 15.80924945  4242
STARLINK-37256          
1 68569U 26070AD  26119.22532792  .00444641  00000+0  21363-2 0  9999
2 68569  53.1566 131.3263 0000818  79.3408 280.7707 15.80933057  4241
STARLINK-37228          
1 68570U 26070AE  26119.22382479  .00441748  00000+0  20998-2 0  9994
2 68570  53.1566 131.3181 0002279 181.4307 178.6710 15.81175725  4248
MERIDIAN-M 21L          
1 68571U 26071A   26118.86572734 -.00000028  00000+0  00000+0 0  9992
2 68571  62.7861 235.3647 7207362 285.0413  11.0145  2.00619252   525
KUIPER-00131            
1 68573U 26072A   26119.25003472  .00056502  00000+0  29852-2 0  9993
2 68573  51.8830  54.3890 0006133 183.9804  34.5537 15.14939010  4779
KUIPER-00189            
1 68574U 26072B   26119.25003472  .00033845  00000+0  23224-2 0  9996
2 68574  51.8900  55.6667 0000677  89.4795 203.8016 15.05693713  4354
KUIPER-00192            
1 68575U 26072C   26119.25003472  .00070252  00000+0  25605-2 0  9995
2 68575  51.8817  53.7842 0004771 198.9046   8.2308 15.27525245  3460
KUIPER-00193            
1 68576U 26072D   26119.19335209  .00040394  00000+0  10714-2 0  9994
2 68576  51.8757  53.8073 0003777 171.2366 188.8688 15.37912313  3840
KUIPER-00194            
1 68577U 26072E   26119.31804693  .00025721  00000+0  68085-3 0  9999
2 68577  51.8784  53.1433 0002082 156.4608 203.6475 15.38206195  3863
KUIPER-00229            
1 68578U 26072F   26119.25003472  .00055904  00000+0  25273-2 0  9996
2 68578  51.8787  54.4043 0007828 204.9800  69.4488 15.20371498  4890
